ELYSIUM STAR 2 & LFF    
1 43760U 18099C   24284.87806061  .00460504  00000+0  82663-2 0  9998
2 43760  97.4984 354.4291 0005973 223.6560 136.4218 15.48181022320977
